{
  "type": "FeatureCollection",
  "features": [
    {
      "type": "Feature",
      "properties": {
        "norad_id": 66625,
        "name": "STARLINK-35929",
        "group": "last-30-days",
        "lat": 25.24919531092553,
        "lon": 139.20881720967284,
        "alt_km": 443.6151280452441,
        "timestamp": "2025-12-27T05:29:37.915332+00:00",
        "meta_object_name": "STARLINK-35929",
        "meta_object_id": "2025-271J",
        "meta_epoch": "2025-12-26T15:20:00.070080",
        "meta_mean_motion": 15.39616872,
        "meta_eccentricity": 0.0001083,
        "meta_inclination": 53.16,
        "meta_ra_of_asc_node": 121.2837,
        "meta_arg_of_pericenter": 75.7835,
        "meta_mean_anomaly": 284.329,
        "meta_ephemeris_type": 0,
        "meta_classification_type": "U",
        "meta_norad_cat_id": 66625,
        "meta_element_set_no": 999,
        "meta_rev_at_epoch": 635,
        "meta_bstar": 0.0016868,
        "meta_mean_motion_dot": 0.00067664,
        "meta_mean_motion_ddot": 0,
        "tle_line1": "1 66625U 25271J   25360.63888970  .00067664  00000+0  16868-2 0  9996",
        "tle_line2": "2 66625  53.1600 121.2837 0001083  75.7835 284.3290 15.39616872  6353"
      },
      "geometry": {
        "type": "Point",
        "coordinates": [
          139.20881720967284,
          25.24919531092553
        ]
      }
    },
    {
      "type": "Feature",
      "properties": {
        "norad_id": 66626,
        "name": "STARLINK-35902",
        "group": "last-30-days",
        "lat": -34.481645296133934,
        "lon": 87.66390189199923,
        "alt_km": 451.2858301552478,
        "timestamp": "2025-12-27T05:29:37.915342+00:00",
        "meta_object_name": "STARLINK-35902",
        "meta_object_id": "2025-271K",
        "meta_epoch": "2025-12-26T17:13:32.304000",
        "meta_mean_motion": 15.39639162,
        "meta_eccentricity": 0.00012731,
        "meta_inclination": 53.1599,
        "meta_ra_of_asc_node": 121.0651,
        "meta_arg_of_pericenter": 53.5743,
        "meta_mean_anomaly": 306.5379,
        "meta_ephemeris_type": 0,
        "meta_classification_type": "U",
        "meta_norad_cat_id": 66626,
        "meta_element_set_no": 999,
        "meta_rev_at_epoch": 636,
        "meta_bstar": 0.0011857333,
        "meta_mean_motion_dot": 0.00047354,
        "meta_mean_motion_ddot": 0,
        "tle_line1": "1 66626U 25271K   25360.71773500  .00047354  00000+0  11857-2 0  9995",
        "tle_line2": "2 66626  53.1599 121.0651 0001273  53.5743 306.5379 15.39639162  6369"
      },
      "geometry": {
        "type": "Point",
        "coordinates": [
          87.66390189199923,
          -34.481645296133934
        ]
      }
    },
    {
      "type": "Feature",
      "properties": {
        "norad_id": 66627,
        "name": "STARLINK-35904",
        "group": "last-30-days",
        "lat": 5.139138350483525,
        "lon": 122.4189218781294,
        "alt_km": 446.8778188593842,
        "timestamp": "2025-12-27T05:29:37.915351+00:00",
        "meta_object_name": "STARLINK-35904",
        "meta_object_id": "2025-271L",
        "meta_epoch": "2025-12-26T15:26:41.300448",
        "meta_mean_motion": 15.39622435,
        "meta_eccentricity": 0.00011322,
        "meta_inclination": 53.1599,
        "meta_ra_of_asc_node": 121.3119,
        "meta_arg_of_pericenter": 64.408,
        "meta_mean_anomaly": 295.7042,
        "meta_ephemeris_type": 0,
        "meta_classification_type": "U",
        "meta_norad_cat_id": 66627,
        "meta_element_set_no": 999,
        "meta_rev_at_epoch": 631,
        "meta_bstar": 0.0011822156,
        "meta_mean_motion_dot": 0.00047185,
        "meta_mean_motion_ddot": 0,
        "tle_line1": "1 66627U 25271L   25360.64353357  .00047185  00000+0  11822-2 0  9996",
        "tle_line2": "2 66627  53.1599 121.3119 0001132  64.4080 295.7042 15.39622435  6317"
      },
      "geometry": {
        "type": "Point",
        "coordinates": [
          122.4189218781294,
          5.139138350483525
        ]
      }
    },
    {
      "type": "Feature",
      "properties": {
        "norad_id": 66628,
        "name": "STARLINK-35862",
        "group": "last-30-days",
        "lat": 32.97066360539563,
        "lon": -90.80383980725665,
        "alt_km": 442.6579494289508,
        "timestamp": "2025-12-27T05:29:37.915361+00:00",
        "meta_object_name": "STARLINK-35862",
        "meta_object_id": "2025-271M",
        "meta_epoch": "2025-12-26T22:00:01.999584",
        "meta_mean_motion": 15.3959211,
        "meta_eccentricity": 0.00012416,
        "meta_inclination": 53.1599,
        "meta_ra_of_asc_node": 119.7672,
        "meta_arg_of_pericenter": 81.5527,
        "meta_mean_anomaly": 124.0289,
        "meta_ephemeris_type": 0,
        "meta_classification_type": "U",
        "meta_norad_cat_id": 66628,
        "meta_element_set_no": 999,
        "meta_rev_at_epoch": 608,
        "meta_bstar": 0.0005943666,
        "meta_mean_motion_dot": 0.00023426,
        "meta_mean_motion_ddot": 0,
        "tle_line1": "1 66628U 25271M   25360.91668981  .00023426  00000+0  59437-3 0  9996",
        "tle_line2": "2 66628  53.1599 119.7672 0001241  81.5527 124.0289 15.39592110  6087"
      },
      "geometry": {
        "type": "Point",
        "coordinates": [
          -90.80383980725665,
          32.97066360539563
        ]
      }
    },
    {
      "type": "Feature",
      "properties": {
        "norad_id": 66629,
        "name": "STARLINK-35956",
        "group": "last-30-days",
        "lat": 46.29786861949888,
        "lon": -113.99989569651035,
        "alt_km": 388.6428529092,
        "timestamp": "2025-12-27T05:29:37.915371+00:00",
        "meta_object_name": "STARLINK-35956",
        "meta_object_id": "2025-271N",
        "meta_epoch": "2025-12-26T21:17:59.677728",
        "meta_mean_motion": 15.57064747,
        "meta_eccentricity": 0.00099151,
        "meta_inclination": 53.1713,
        "meta_ra_of_asc_node": 119.2953,
        "meta_arg_of_pericenter": 27.4923,
        "meta_mean_anomaly": 332.6612,
        "meta_ephemeris_type": 0,
        "meta_classification_type": "U",
        "meta_norad_cat_id": 66629,
        "meta_element_set_no": 999,
        "meta_rev_at_epoch": 126,
        "meta_bstar": 0.0067511274,
        "meta_mean_motion_dot": 0.00531939,
        "meta_mean_motion_ddot": 0,
        "tle_line1": "1 66629U 25271N   25360.88749627  .00531939  00000+0  67511-2 0  9994",
        "tle_line2": "2 66629  53.1713 119.2953 0009915  27.4923 332.6612 15.57064747  1260"
      },
      "geometry": {
        "type": "Point",
        "coordinates": [
          -113.99989569651035,
          46.29786861949888
        ]
      }
    },
    {
      "type": "Feature",
      "properties": {
        "norad_id": 66630,
        "name": "STARLINK-35949",
        "group": "last-30-days",
        "lat": 15.035988779074383,
        "lon": -73.37159087722725,
        "alt_km": 446.17916842493014,
        "timestamp": "2025-12-27T05:29:37.915381+00:00",
        "meta_object_name": "STARLINK-35949",
        "meta_object_id": "2025-271P",
        "meta_epoch": "2025-12-26T22:00:01.999584",
        "meta_mean_motion": 15.39592238,
        "meta_eccentricity": 6.231e-05,
        "meta_inclination": 53.1601,
        "meta_ra_of_asc_node": 119.7182,
        "meta_arg_of_pericenter": 48.4677,
        "meta_mean_anomaly": 181.0345,
        "meta_ephemeris_type": 0,
        "meta_classification_type": "U",
        "meta_norad_cat_id": 66630,
        "meta_element_set_no": 999,
        "meta_rev_at_epoch": 603,
        "meta_bstar": 0.00050248982,
        "meta_mean_motion_dot": 0.00019733,
        "meta_mean_motion_ddot": 0,
        "tle_line1": "1 66630U 25271P   25360.91668981  .00019733  00000+0  50249-3 0  9997",
        "tle_line2": "2 66630  53.1601 119.7182 0000623  48.4677 181.0345 15.39592238  6033"
      },
      "geometry": {
        "type": "Point",
        "coordinates": [
          -73.37159087722725,
          15.035988779074383
        ]
      }
    },
    {
      "type": "Feature",
      "properties": {
        "norad_id": 66631,
        "name": "STARLINK-35965",
        "group": "last-30-days",
        "lat": 13.591332115154959,
        "lon": -72.1994524106595,
        "alt_km": 446.2213312402946,
        "timestamp": "2025-12-27T05:29:37.915394+00:00",
        "meta_object_name": "STARLINK-35965",
        "meta_object_id": "2025-271Q",
        "meta_epoch": "2025-12-26T22:00:01.999584",
        "meta_mean_motion": 15.39578891,
        "meta_eccentricity": 7.46e-05,
        "meta_inclination": 53.1599,
        "meta_ra_of_asc_node": 119.715,
        "meta_arg_of_pericenter": 77.4213,
        "meta_mean_anomaly": 153.9297,
        "meta_ephemeris_type": 0,
        "meta_classification_type": "U",
        "meta_norad_cat_id": 66631,
        "meta_element_set_no": 999,
        "meta_rev_at_epoch": 591,
        "meta_bstar": 0.00069092841,
        "meta_mean_motion_dot": 0.00027299,
        "meta_mean_motion_ddot": 0,
        "tle_line1": "1 66631U 25271Q   25360.91668981  .00027299  00000+0  69093-3 0  9991",
        "tle_line2": "2 66631  53.1599 119.7150 0000746  77.4213 153.9297 15.39578891  5918"
      },
      "geometry": {
        "type": "Point",
        "coordinates": [
          -72.1994524106595,
          13.591332115154959
        ]
      }
    }
  ]
}